ORBCOMM FM24            
1 25478U 98053D   25333.06280118  .00001085  00000+0  39731-3 0  9992
2 25478  45.0067 207.0864 0002946 350.3724   9.7067 14.38599823421189
ORBCOMM FM25            
1 25479U 98053E   25333.03754681  .00001105  00000+0  40379-3 0  9994
2 25479  45.0055 205.5024 0005298 356.3478   3.7331 14.38569053421475
ORBCOMM FM26            
1 25480U 98053F   25333.09109301  .00000907  00000+0  34691-3 0  9994
2 25480  45.0055 202.9334 0007084  10.9248 349.1753 14.37550867421371
ORBCOMM FM27            
1 25481U 98053G   25333.02150111  .00001101  00000+0  40238-3 0  9994
2 25481  45.0039 205.7179 0001636   8.2013 351.8862 14.38602121421406
ORBCOMM FM28            
1 25482U 98053H   25333.17913243  .00001048  00000+0  38442-3 0  9998
2 25482  45.0030 142.2594 0004479  58.1892 301.9393 14.38731923422118
ORBCOMM FM30            
1 25980U 99065A   25333.20119007  .00000963  00000+0  36429-3 0  9993
2 25980  45.0325  28.4286 0005270 134.4848 225.6432 14.37714447358193
ORBCOMM FM31            
1 25981U 99065B   25333.18212286  .00001018  00000+0  38270-3 0  9992
2 25981  45.0240  21.9750 0003852 175.3777 184.7107 14.37642730357742
ORBCOMM FM32            
1 25982U 99065C   25333.19855832  .00001138  00000+0  43041-3 0  9999
2 25982  45.0164  39.5783 0006079 156.9220 203.1902 14.36698230358320
